NAVSTAR 60 (USA 196)    
1 32260U 07047A   25123.89588860  .00000023  00000+0  00000+0 0  9999
2 32260  53.8016  96.9682 0159605  80.7670 281.0138  2.00574675128608
NAVSTAR 61 (USA 199)    
1 32384U 07062A   25123.95588706 -.00000038  00000+0  00000+0 0  9996
2 32384  55.3679 290.5691 0031213 155.0670  18.3867  2.00565445127300
NAVSTAR 62 (USA 201)    
1 32711U 08012A   25123.30846288  .00000017  00000+0  00000+0 0  9993
2 32711  54.4590 166.2874 0197990 242.7156 115.3161  2.00557341125530
NAVSTAR 63 (USA 203)    
1 34661U 09014A   25119.73063448  .00000010  00000+0  00000+0 0  9996
2 34661  54.5748 227.2395 0137697  60.1717 305.1930  2.00565005117991
NAVSTAR 64 (USA 206)    
1 35752U 09043A   25123.80658039 -.00000083  00000+0  00000+0 0  9990
2 35752  55.9317  43.5755 0054860  76.7133 293.7848  2.00578107115157
NAVSTAR 65 (USA 213)    
1 36585U 10022A   25123.62723021 -.00000034  00000+0  00000+0 0  9994
2 36585  54.3485 225.0675 0120946  64.0019 299.1658  2.00567600109384
NAVSTAR 66 (USA 232)    
1 37753U 11036A   25123.77917442 -.00000098  00000+0  00000+0 0  9996
2 37753  56.7169 347.9266 0135394  59.5166 120.2239  2.00566772101067
NAVSTAR 67 (USA 239)    
1 38833U 12053A   25123.48939667  .00000022  00000+0  00000+0 0  9993
2 38833  53.5327 160.3745 0164231  60.2196 301.4643  2.00562422 91227
NAVSTAR 68 (USA 242)    
1 39166U 13023A   25123.35232404 -.00000034  00000+0  00000+0 0  9996
2 39166  54.8378 285.6359 0133337  47.6894 313.4095  2.00561359 87661
NAVSTAR 69 (USA 248)    
1 39533U 14008A   25123.35195794  .00000016  00000+0  00000+0 0  9997
2 39533  53.6105 166.0284 0078134 224.8261 134.6024  2.00560877 81464
NAVSTAR 70 (USA 251)    
1 39741U 14026A   25123.63322634 -.00000098  00000+0  00000+0 0  9995
2 39741  56.6574 347.4417 0035584 320.2657  39.5112  2.00577320 80329
NAVSTAR 71 (USA 256)    
1 40105U 14045A   25123.22001556  .00000033  00000+0  00000+0 0  9992
2 40105  55.0948 104.8192 0028162 116.9673 243.3054  2.00558048 77850
NAVSTAR 72 (USA 258)    
1 40294U 14068A   25123.08717840 -.00000073  00000+0  00000+0 0  9995
2 40294  56.6883  46.7980 0058731  64.6001 296.0056  2.00579873 76981
