[
    {
        "OBJECT_NAME": "NAVSTAR 60 (USA 196)",
        "OBJECT_ID": "2007-047A",
        "EPOCH": "2025-05-03T21:30:04.775040",
        "MEAN_MOTION": 2.00574675,
        "ECCENTRICITY": 0.0159605,
        "INCLINATION": 53.8016,
        "RA_OF_ASC_NODE": 96.9682,
        "ARG_OF_PERICENTER": 80.767,
        "MEAN_ANOMALY": 281.0138,
        "EPHEMERIS_TYPE": 0,
        "CLASSIFICATION_TYPE": "U",
        "NORAD_CAT_ID": 32260,
        "ELEMENT_SET_NO": 999,
        "REV_AT_EPOCH": 12860,
        "BSTAR": 0,
        "MEAN_MOTION_DOT": 2.3e-07,
        "MEAN_MOTION_DDOT": 0
    },
    {
        "OBJECT_NAME": "NAVSTAR 61 (USA 199)",
        "OBJECT_ID": "2007-062A",
        "EPOCH": "2025-05-03T22:56:28.641984",
        "MEAN_MOTION": 2.00565445,
        "ECCENTRICITY": 0.0031213,
        "INCLINATION": 55.3679,
        "RA_OF_ASC_NODE": 290.5691,
        "ARG_OF_PERICENTER": 155.067,
        "MEAN_ANOMALY": 18.3867,
        "EPHEMERIS_TYPE": 0,
        "CLASSIFICATION_TYPE": "U",
        "NORAD_CAT_ID": 32384,
        "ELEMENT_SET_NO": 999,
        "REV_AT_EPOCH": 12730,
        "BSTAR": 0,
        "MEAN_MOTION_DOT": -3.8e-07,
        "MEAN_MOTION_DDOT": 0
    },
    {
        "OBJECT_NAME": "NAVSTAR 62 (USA 201)",
        "OBJECT_ID": "2008-012A",
        "EPOCH": "2025-05-03T07:24:11.192832",
        "MEAN_MOTION": 2.00557341,
        "ECCENTRICITY": 0.019799,
        "INCLINATION": 54.459,
        "RA_OF_ASC_NODE": 166.2874,
        "ARG_OF_PERICENTER": 242.7156,
        "MEAN_ANOMALY": 115.3161,
        "EPHEMERIS_TYPE": 0,
        "CLASSIFICATION_TYPE": "U",
        "NORAD_CAT_ID": 32711,
        "ELEMENT_SET_NO": 999,
        "REV_AT_EPOCH": 12553,
        "BSTAR": 0,
        "MEAN_MOTION_DOT": 1.7e-07,
        "MEAN_MOTION_DDOT": 0
    },
    {
        "OBJECT_NAME": "NAVSTAR 63 (USA 203)",
        "OBJECT_ID": "2009-014A",
        "EPOCH": "2025-04-29T17:32:06.819072",
        "MEAN_MOTION": 2.00565005,
        "ECCENTRICITY": 0.0137697,
        "INCLINATION": 54.5748,
        "RA_OF_ASC_NODE": 227.2395,
        "ARG_OF_PERICENTER": 60.1717,
        "MEAN_ANOMALY": 305.193,
        "EPHEMERIS_TYPE": 0,
        "CLASSIFICATION_TYPE": "U",
        "NORAD_CAT_ID": 34661,
        "ELEMENT_SET_NO": 999,
        "REV_AT_EPOCH": 11799,
        "BSTAR": 0,
        "MEAN_MOTION_DOT": 1e-07,
        "MEAN_MOTION_DDOT": 0
    },
    {
        "OBJECT_NAME": "NAVSTAR 64 (USA 206)",
        "OBJECT_ID": "2009-043A",
        "EPOCH": "2025-05-03T19:21:28.545696",
        "MEAN_MOTION": 2.00578107,
        "ECCENTRICITY": 0.005486,
        "INCLINATION": 55.9317,
        "RA_OF_ASC_NODE": 43.5755,
        "ARG_OF_PERICENTER": 76.7133,
        "MEAN_ANOMALY": 293.7848,
        "EPHEMERIS_TYPE": 0,
        "CLASSIFICATION_TYPE": "U",
        "NORAD_CAT_ID": 35752,
        "ELEMENT_SET_NO": 999,
        "REV_AT_EPOCH": 11515,
        "BSTAR": 0,
        "MEAN_MOTION_DOT": -8.3e-07,
        "MEAN_MOTION_DDOT": 0
    },
    {
        "OBJECT_NAME": "NAVSTAR 65 (USA 213)",
        "OBJECT_ID": "2010-022A",
        "EPOCH": "2025-05-03T15:03:12.690144",
        "MEAN_MOTION": 2.005676,
        "ECCENTRICITY": 0.0120946,
        "INCLINATION": 54.3485,
        "RA_OF_ASC_NODE": 225.0675,
        "ARG_OF_PERICENTER": 64.0019,
        "MEAN_ANOMALY": 299.1658,
        "EPHEMERIS_TYPE": 0,
        "CLASSIFICATION_TYPE": "U",
        "NORAD_CAT_ID": 36585,
        "ELEMENT_SET_NO": 999,
        "REV_AT_EPOCH": 10938,
        "BSTAR": 0,
        "MEAN_MOTION_DOT": -3.4e-07,
        "MEAN_MOTION_DDOT": 0
    },
    {
        "OBJECT_NAME": "NAVSTAR 66 (USA 232)",
        "OBJECT_ID": "2011-036A",
        "EPOCH": "2025-05-03T18:42:00.669888",
        "MEAN_MOTION": 2.00566772,
        "ECCENTRICITY": 0.0135394,
        "INCLINATION": 56.7169,
        "RA_OF_ASC_NODE": 347.9266,
        "ARG_OF_PERICENTER": 59.5166,
        "MEAN_ANOMALY": 120.2239,
        "EPHEMERIS_TYPE": 0,
        "CLASSIFICATION_TYPE": "U",
        "NORAD_CAT_ID": 37753,
        "ELEMENT_SET_NO": 999,
        "REV_AT_EPOCH": 10106,
        "BSTAR": 0,
        "MEAN_MOTION_DOT": -9.8e-07,
        "MEAN_MOTION_DDOT": 0
    },
    {
        "OBJECT_NAME": "NAVSTAR 67 (USA 239)",
        "OBJECT_ID": "2012-053A",
        "EPOCH": "2025-05-03T11:44:43.872288",
        "MEAN_MOTION": 2.00562422,
        "ECCENTRICITY": 0.0164231,
        "INCLINATION": 53.5327,
        "RA_OF_ASC_NODE": 160.3745,
        "ARG_OF_PERICENTER": 60.2196,
        "MEAN_ANOMALY": 301.4643,
        "EPHEMERIS_TYPE": 0,
        "CLASSIFICATION_TYPE": "U",
        "NORAD_CAT_ID": 38833,
        "ELEMENT_SET_NO": 999,
        "REV_AT_EPOCH": 9122,
        "BSTAR": 0,
        "MEAN_MOTION_DOT": 2.2e-07,
        "MEAN_MOTION_DDOT": 0
    },
    {
        "OBJECT_NAME": "NAVSTAR 68 (USA 242)",
        "OBJECT_ID": "2013-023A",
        "EPOCH": "2025-05-03T08:27:20.797056",
        "MEAN_MOTION": 2.00561359,
        "ECCENTRICITY": 0.0133337,
        "INCLINATION": 54.8378,
        "RA_OF_ASC_NODE": 285.6359,
        "ARG_OF_PERICENTER": 47.6894,
        "MEAN_ANOMALY": 313.4095,
        "EPHEMERIS_TYPE": 0,
        "CLASSIFICATION_TYPE": "U",
        "NORAD_CAT_ID": 39166,
        "ELEMENT_SET_NO": 999,
        "REV_AT_EPOCH": 8766,
        "BSTAR": 0,
        "MEAN_MOTION_DOT": -3.4e-07,
        "MEAN_MOTION_DDOT": 0
    },
    {
        "OBJECT_NAME": "NAVSTAR 69 (USA 248)",
        "OBJECT_ID": "2014-008A",
        "EPOCH": "2025-05-03T08:26:49.166016",
        "MEAN_MOTION": 2.00560877,
        "ECCENTRICITY": 0.0078134,
        "INCLINATION": 53.6105,
        "RA_OF_ASC_NODE": 166.0284,
        "ARG_OF_PERICENTER": 224.8261,
        "MEAN_ANOMALY": 134.6024,
        "EPHEMERIS_TYPE": 0,
        "CLASSIFICATION_TYPE": "U",
        "NORAD_CAT_ID": 39533,
        "ELEMENT_SET_NO": 999,
        "REV_AT_EPOCH": 8146,
        "BSTAR": 0,
        "MEAN_MOTION_DOT": 1.6e-07,
        "MEAN_MOTION_DDOT": 0
    },
    {
        "OBJECT_NAME": "NAVSTAR 70 (USA 251)",
        "OBJECT_ID": "2014-026A",
        "EPOCH": "2025-05-03T15:11:50.755776",
        "MEAN_MOTION": 2.0057732,
        "ECCENTRICITY": 0.0035584,
        "INCLINATION": 56.6574,
        "RA_OF_ASC_NODE": 347.4417,
        "ARG_OF_PERICENTER": 320.2657,
        "MEAN_ANOMALY": 39.5112,
        "EPHEMERIS_TYPE": 0,
        "CLASSIFICATION_TYPE": "U",
        "NORAD_CAT_ID": 39741,
        "ELEMENT_SET_NO": 999,
        "REV_AT_EPOCH": 8032,
        "BSTAR": 0,
        "MEAN_MOTION_DOT": -9.8e-07,
        "MEAN_MOTION_DDOT": 0
    },
    {
        "OBJECT_NAME": "NAVSTAR 71 (USA 256)",
        "OBJECT_ID": "2014-045A",
        "EPOCH": "2025-05-03T05:16:49.344384",
        "MEAN_MOTION": 2.00558048,
        "ECCENTRICITY": 0.0028162,
        "INCLINATION": 55.0948,
        "RA_OF_ASC_NODE": 104.8192,
        "ARG_OF_PERICENTER": 116.9673,
        "MEAN_ANOMALY": 243.3054,
        "EPHEMERIS_TYPE": 0,
        "CLASSIFICATION_TYPE": "U",
        "NORAD_CAT_ID": 40105,
        "ELEMENT_SET_NO": 999,
        "REV_AT_EPOCH": 7785,
        "BSTAR": 0,
        "MEAN_MOTION_DOT": 3.3e-07,
        "MEAN_MOTION_DDOT": 0
    },
    {
        "OBJECT_NAME": "NAVSTAR 72 (USA 258)",
        "OBJECT_ID": "2014-068A",
        "EPOCH": "2025-05-03T02:05:32.213760",
        "MEAN_MOTION": 2.00579873,
        "ECCENTRICITY": 0.0058731,
        "INCLINATION": 56.6883,
        "RA_OF_ASC_NODE": 46.798,
        "ARG_OF_PERICENTER": 64.6001,
        "MEAN_ANOMALY": 296.0056,
        "EPHEMERIS_TYPE": 0,
        "CLASSIFICATION_TYPE": "U",
        "NORAD_CAT_ID": 40294,
        "ELEMENT_SET_NO": 999,
        "REV_AT_EPOCH": 7698,
        "BSTAR": 0,
        "MEAN_MOTION_DOT": -7.3e-07,
        "MEAN_MOTION_DDOT": 0
    }
]